{"type": "FeatureCollection", "features": [ {"type": "Feature", "properties": {"norad_id": 38755, "name": "SPOT 6", "group": "resource", "lat": 8.701374723699608, "lon": -131.2276637472615, "alt_km": 699.2223635890132, "timestamp": "2025-12-08T15:42:49.435216+00:00", "meta": {"OBJECT_NAME": "SPOT 6", "OBJECT_ID": "2012-047A", "EPOCH": "2025-12-08T06:41:59.883648", "MEAN_MOTION": 14.58597358, "ECCENTRICITY": 0.00010807, "INCLINATION": 98.1579, "RA_OF_ASC_NODE": 47.1457, "ARG_OF_PERICENTER": 102.4343, "MEAN_ANOMALY": 257.6977, "EPHEMERIS_TYPE": 0, "CLASSIFICATION_TYPE": "U", "NORAD_CAT_ID": 38755, "ELEMENT_SET_NO": 999, "REV_AT_EPOCH": 70522, "BSTAR": 0.00019073011, "MEAN_MOTION_DOT": 8.42e-06, "MEAN_MOTION_DDOT": 0}, "tle": {"line1": "1 38755U 12047A   25342.27916532  .00000842  00000+0  19073-3 0  9999", "line2": "2 38755  98.1579  47.1457 0001080 102.4343 257.6977 14.58597358705227"}}, "geometry": {"type": "Point", "coordinates": [-131.2276637472615, 8.701374723699608]}}, {"type": "Feature", "properties": {"norad_id": 39019, "name": "PLEIADES 1B", "group": "resource", "lat": 68.75956354569003, "lon": 33.65080860758196, "alt_km": 690.3495911295122, "timestamp": "2025-12-08T15:42:49.435226+00:00", "meta": {"OBJECT_NAME": "PLEIADES 1B", "OBJECT_ID": "2012-068A", "EPOCH": "2025-12-08T07:09:36.907776", "MEAN_MOTION": 14.58546877, "ECCENTRICITY": 0.00012182, "INCLINATION": 98.1801, "RA_OF_ASC_NODE": 55.0202, "ARG_OF_PERICENTER": 87.3022, "MEAN_ANOMALY": 272.8317, "EPHEMERIS_TYPE": 0, "CLASSIFICATION_TYPE": "U", "NORAD_CAT_ID": 39019, "ELEMENT_SET_NO": 999, "REV_AT_EPOCH": 69302, "BSTAR": 0.0001972489, "MEAN_MOTION_DOT": 8.71e-06, "MEAN_MOTION_DDOT": 0}, "tle": {"line1": "1 39019U 12068A   25342.29834384  .00000871  00000+0  19725-3 0  9998", "line2": "2 39019  98.1801  55.0202 0001218  87.3022 272.8317 14.58546877693024"}}, "geometry": {"type": "Point", "coordinates": [33.65080860758196, 68.75956354569003]}}, {"type": "Feature", "properties": {"norad_id": 39030, "name": "GOKTURK 2", "group": "resource", "lat": 39.56843778148835, "lon": 178.09828378510207, "alt_km": 640.9587496703325, "timestamp": "2025-12-08T15:42:49.435236+00:00", "meta": {"OBJECT_NAME": "GOKTURK 2", "OBJECT_ID": "2012-073A", "EPOCH": "2025-12-08T07:23:38.503392", "MEAN_MOTION": 14.75282354, "ECCENTRICITY": 8.971e-05, "INCLINATION": 97.6903, "RA_OF_ASC_NODE": 184.1797, "ARG_OF_PERICENTER": 104.9263, "MEAN_ANOMALY": 255.2046, "EPHEMERIS_TYPE": 0, "CLASSIFICATION_TYPE": "U", "NORAD_CAT_ID": 39030, "ELEMENT_SET_NO": 999, "REV_AT_EPOCH": 69636, "BSTAR": 0.00018972836, "MEAN_MOTION_DOT": 1.237e-05, "MEAN_MOTION_DDOT": 0}, "tle": {"line1": "1 39030U 12073A   25342.30808453  .00001237  00000+0  18973-3 0  9998", "line2": "2 39030  97.6903 184.1797 0000897 104.9263 255.2046 14.75282354696362"}}, "geometry": {"type": "Point", "coordinates": [178.09828378510207, 39.56843778148835]}}, {"type": "Feature", "properties": {"norad_id": 39084, "name": "LANDSAT 8", "group": "resource", "lat": -78.23465031009908, "lon": -173.0783611275491, "alt_km": 710.652732198696, "timestamp": "2025-12-08T15:42:49.435247+00:00", "meta": {"OBJECT_NAME": "LANDSAT 8", "OBJECT_ID": "2013-008A", "EPOCH": "2025-12-08T06:16:36.164352", "MEAN_MOTION": 14.57107807, "ECCENTRICITY": 0.0001124, "INCLINATION": 98.2077, "RA_OF_ASC_NODE": 50.401, "ARG_OF_PERICENTER": 86.4355, "MEAN_ANOMALY": 273.6972, "EPHEMERIS_TYPE": 0, "CLASSIFICATION_TYPE": "U", "NORAD_CAT_ID": 39084, "ELEMENT_SET_NO": 999, "REV_AT_EPOCH": 67009, "BSTAR": 0.00020221811, "MEAN_MOTION_DOT": 8.66e-06, "MEAN_MOTION_DDOT": 0}, "tle": {"line1": "1 39084U 13008A   25342.26152968  .00000866  00000+0  20222-3 0  9991", "line2": "2 39084  98.2077  50.4010 0001124  86.4355 273.6972 14.57107807670096"}}, "geometry": {"type": "Point", "coordinates": [-173.0783611275491, -78.23465031009908]}}, {"type": "Feature", "properties": {"norad_id": 39086, "name": "SARAL", "group": "resource", "lat": -63.530918353856485, "lon": -30.949242435079327, "alt_km": 790.9578471584564, "timestamp": "2025-12-08T15:42:49.435257+00:00", "meta": {"OBJECT_NAME": "SARAL", "OBJECT_ID": "2013-009A", "EPOCH": "2025-12-08T06:11:40.310016", "MEAN_MOTION": 14.3275483, "ECCENTRICITY": 0.00027729, "INCLINATION": 98.5505, "RA_OF_ASC_NODE": 166.247, "ARG_OF_PERICENTER": 117.131, "MEAN_ANOMALY": 243.0157, "EPHEMERIS_TYPE": 0, "CLASSIFICATION_TYPE": "U", "NORAD_CAT_ID": 39086, "ELEMENT_SET_NO": 999, "REV_AT_EPOCH": 66826, "BSTAR": 0.00011641179, "MEAN_MOTION_DOT": 2.73e-06, "MEAN_MOTION_DDOT": 0}, "tle": {"line1": "1 39086U 13009A   25342.25810544  .00000273  00000+0  11641-3 0  9991", "line2": "2 39086  98.5505 166.2470 0002772 117.1310 243.0157 14.32754830668265"}}, "geometry": {"type": "Point", "coordinates": [-30.949242435079327, -63.530918353856485]}}, {"type": "Feature", "properties": {"norad_id": 39150, "name": "GAOFEN-1", "group": "resource", "lat": 77.52831241827796, "lon": -87.52881612364922, "alt_km": 625.994228413364, "timestamp": "2025-12-08T15:42:49.435268+00:00", "meta": {"OBJECT_NAME": "GAOFEN-1", "OBJECT_ID": "2013-018A", "EPOCH": "2025-12-08T07:07:53.831712", "MEAN_MOTION": 14.76522789, "ECCENTRICITY": 0.0017979, "INCLINATION": 97.9332, "RA_OF_ASC_NODE": 53.0349, "ARG_OF_PERICENTER": 156.9231, "MEAN_ANOMALY": 203.2791, "EPHEMERIS_TYPE": 0, "CLASSIFICATION_TYPE": "U", "NORAD_CAT_ID": 39150, "ELEMENT_SET_NO": 999, "REV_AT_EPOCH": 68007, "BSTAR": 0.00023466521, "MEAN_MOTION_DOT": 1.589e-05, "MEAN_MOTION_DDOT": 0}, "tle": {"line1": "1 39150U 13018A   25342.29715083  .00001589  00000+0  23467-3 0  9999", "line2": "2 39150  97.9332  53.0349 0017979 156.9231 203.2791 14.76522789680073"}}, "geometry": {"type": "Point", "coordinates": [-87.52881612364922, 77.52831241827796]}}, {"type": "Feature", "properties": {"norad_id": 39160, "name": "VNREDSAT 1", "group": "resource", "lat": -27.039266831639864, "lon": 42.15646900030703, "alt_km": 683.4071720351885, "timestamp": "2025-12-08T15:42:49.435278+00:00", "meta": {"OBJECT_NAME": "VNREDSAT 1", "OBJECT_ID": "2013-021B", "EPOCH": "2025-12-08T06:00:08.492256", "MEAN_MOTION": 14.6491327, "ECCENTRICITY": 0.00013099, "INCLINATION": 97.9379, "RA_OF_ASC_NODE": 37.6823, "ARG_OF_PERICENTER": 82.9818, "MEAN_ANOMALY": 277.1534, "EPHEMERIS_TYPE": 0, "CLASSIFICATION_TYPE": "U", "NORAD_CAT_ID": 39160, "ELEMENT_SET_NO": 999, "REV_AT_EPOCH": 67233, "BSTAR": 0.00026365461, "MEAN_MOTION_DOT": 1.364e-05, "MEAN_MOTION_DDOT": 0}, "tle": {"line1": "1 39160U 13021B   25342.25009829  .00001364  00000+0  26365-3 0  9995", "line2": "2 39160  97.9379  37.6823 0001309  82.9818 277.1534 14.64913270672330"}}, "geometry": {"type": "Point", "coordinates": [42.15646900030703, -27.039266831639864]}}, {"type": "Feature", "properties": {"norad_id": 39227, "name": "ARIRANG-5 (KOMPSAT-5)", "group": "resource", "lat": -10.182692051933444, "lon": -14.359655433496666, "alt_km": 558.629228593175, "timestamp": "2025-12-08T15:42:49.435289+00:00", "meta": {"OBJECT_NAME": "ARIRANG-5 (KOMPSAT-5)", "OBJECT_ID": "2013-042A", "EPOCH": "2025-12-08T05:17:39.922944", "MEAN_MOTION": 15.04529133, "ECCENTRICITY": 0.00038245, "INCLINATION": 97.6148, "RA_OF_ASC_NODE": 166.5895, "ARG_OF_PERICENTER": 69.7807, "MEAN_ANOMALY": 290.383, "EPHEMERIS_TYPE": 0, "CLASSIFICATION_TYPE": "U", "NORAD_CAT_ID": 39227, "ELEMENT_SET_NO": 999, "REV_AT_EPOCH": 67514, "BSTAR": 0.00019501537, "MEAN_MOTION_DOT": 2.672e-05, "MEAN_MOTION_DDOT": 0}, "tle": {"line1": "1 39227U 13042A   25342.22060096  .00002672  00000+0  19502-3 0  9990", "line2": "2 39227  97.6148 166.5895 0003824  69.7807 290.3830 15.04529133675145"}}, "geometry": {"type": "Point", "coordinates": [-14.359655433496666, -10.182692051933444]}}, {"type": "Feature", "properties": {"norad_id": 39418, "name": "SKYSAT-A", "group": "resource", "lat": 78.25785678233417, "lon": -108.24279444274515, "alt_km": 536.8338986840654, "timestamp": "2025-12-08T15:42:49.435299+00:00", "meta": {"OBJECT_NAME": "SKYSAT-A", "OBJECT_ID": "2013-066C", "EPOCH": "2025-12-08T02:33:54.556416", "MEAN_MOTION": 15.11549632, "ECCENTRICITY": 0.00206357, "INCLINATION": 97.4108, "RA_OF_ASC_NODE": 32.4561, "ARG_OF_PERICENTER": 253.7759, "MEAN_ANOMALY": 106.1201, "EPHEMERIS_TYPE": 0, "CLASSIFICATION_TYPE": "U", "NORAD_CAT_ID": 39418, "ELEMENT_SET_NO": 999, "REV_AT_EPOCH": 65960, "BSTAR": 0.00031260289, "MEAN_MOTION_DOT": 5.263e-05, "MEAN_MOTION_DDOT": 0}, "tle": {"line1": "1 39418U 13066C   25342.10688144  .00005263  00000+0  31260-3 0  9999", "line2": "2 39418  97.4108  32.4561 0020635 253.7759 106.1201 15.11549632659605"}}, "geometry": {"type": "Point", "coordinates": [-108.24279444274515, 78.25785678233417]}}, {"type": "Feature", "properties": {"norad_id": 39419, "name": "DUBAISAT-2", "group": "resource", "lat": -69.73205441743093, "lon": -6.074052256150506, "alt_km": 543.5157549928845, "timestamp": "2025-12-08T15:42:49.435310+00:00", "meta": {"OBJECT_NAME": "DUBAISAT-2", "OBJECT_ID": "2013-066D", "EPOCH": "2025-12-08T06:28:28.714656", "MEAN_MOTION": 15.08288281, "ECCENTRICITY": 0.00109948, "INCLINATION": 97.4446, "RA_OF_ASC_NODE": 332.8148, "ARG_OF_PERICENTER": 337.2549, "MEAN_ANOMALY": 22.8191, "EPHEMERIS_TYPE": 0, "CLASSIFICATION_TYPE": "U", "NORAD_CAT_ID": 39419, "ELEMENT_SET_NO": 999, "REV_AT_EPOCH": 65759, "BSTAR": 0.00048025875, "MEAN_MOTION_DOT": 7.398e-05, "MEAN_MOTION_DDOT": 0}, "tle": {"line1": "1 39419U 13066D   25342.26977679  .00007398  00000+0  48026-3 0  9990", "line2": "2 39419  97.4446 332.8148 0010994 337.2549  22.8191 15.08288281657595"}}, "geometry": {"type": "Point", "coordinates": [-6.074052256150506, -69.73205441743093]}}]}